start=new Date('2022-05-01T00:00:00.000Z').valueOf();
sats=[{"APOAPSIS":"548.276","NORAD_CAT_ID":"48573","OBJECT_ID":"2021-041W","TLE_LINE1":"1 48573U 21041W   22120.85739500 -.00001741  00000-0 -98006-4 0  9991","GP_ID":"202391596","RA_OF_ASC_NODE":"336.1019","PERIOD":"95.592","ELEMENT_SET_NO":"999","TLE_LINE2":"2 48573  53.0560 336.1019 0001530  64.7280 295.3867 15.06399224 52858","BSTAR":"-0.00009800600000","RCS_SIZE":"LARGE","TIME_SYSTEM":"UTC","DECAY_DATE":null,"MEAN_MOTION":"15.06399224","PERIAPSIS":"546.156","MEAN_MOTION_DOT":"-0.00001741","SEMIMAJOR_AXIS":"6925.351","ECCENTRICITY":"0.00015300","OBJECT_NAME":"STARLINK-2224","REF_FRAME":"TEME","SITE":"AFETR","MEAN_MOTION_DDOT":"0.0000000000000","LAUNCH_DATE":"2021-05-15","FILE":"3423346","INCLINATION":"53.0560","EPHEMERIS_TYPE":"0","CENTER_NAME":"EARTH","MEAN_ANOMALY":"295.3867","OBJECT_TYPE":"PAYLOAD","MEAN_ELEMENT_THEORY":"SGP4","COUNTRY_CODE":"US","CLASSIFICATION_TYPE":"U","ARG_OF_PERICENTER":"64.7280","EPOCH":"2022-04-30T20:34:38.928000","REV_AT_EPOCH":"5285"},{"TLE_LINE2":"2 48574  53.0538 305.8437 0001667  59.4874 112.4093 15.06371840  3605","BSTAR":"0.00245590000000","RCS_SIZE":"LARGE","MEAN_MOTION_DOT":"0.00036461","SEMIMAJOR_AXIS":"6925.435","PERIAPSIS":"546.145","TIME_SYSTEM":"UTC","DECAY_DATE":null,"MEAN_MOTION":"15.06371840","OBJECT_ID":"2021-041X","NORAD_CAT_ID":"48574","APOAPSIS":"548.454","PERIOD":"95.594","ELEMENT_SET_NO":"999","GP_ID":"202390344","RA_OF_ASC_NODE":"305.8437","TLE_LINE1":"1 48574U 21041X   22120.91667824  .00036461  00000-0  24559-2 0  9993","CLASSIFICATION_TYPE":"U","ARG_OF_PERICENTER":"59.4874","MEAN_ELEMENT_THEORY":"SGP4","OBJECT_TYPE":"PAYLOAD","MEAN_ANOMALY":"112.4093","COUNTRY_CODE":"US","REV_AT_EPOCH":"360","EPOCH":"2022-04-30T22:00:00.999936","SITE":"AFETR","REF_FRAME":"TEME","OBJECT_NAME":"STARLINK-2225","ECCENTRICITY":"0.00016670","INCLINATION":"53.0538","CENTER_NAME":"EARTH","EPHEMERIS_TYPE":"0","FILE":"3423346","LAUNCH_DATE":"2021-05-15","MEAN_MOTION_DDOT":"0.0000000000000"},{"RCS_SIZE":"LARGE","BSTAR":"0.00053321000000","TLE_LINE2":"2 48575  53.0522 295.8546 0001556  66.0641 140.8025 15.06396185  3600","SEMIMAJOR_AXIS":"6925.360","MEAN_MOTION_DOT":"0.00007669","PERIAPSIS":"546.148","MEAN_MOTION":"15.06396185","DECAY_DATE":null,"TIME_SYSTEM":"UTC","OBJECT_ID":"2021-041Y","NORAD_CAT_ID":"48575","APOAPSIS":"548.303","ELEMENT_SET_NO":"999","PERIOD":"95.592","RA_OF_ASC_NODE":"295.8546","GP_ID":"202391095","TLE_LINE1":"1 48575U 21041Y   22120.91667824  .00007669  00000-0  53321-3 0  9992","CLASSIFICATION_TYPE":"U","ARG_OF_PERICENTER":"66.0641","COUNTRY_CODE":"US","MEAN_ELEMENT_THEORY":"SGP4","OBJECT_TYPE":"PAYLOAD","MEAN_ANOMALY":"140.8025","REV_AT_EPOCH":"360","EPOCH":"2022-04-30T22:00:00.999936","SITE":"AFETR","REF_FRAME":"TEME","ECCENTRICITY":"0.00015560","OBJECT_NAME":"STARLINK-2227","CENTER_NAME":"EARTH","EPHEMERIS_TYPE":"0","INCLINATION":"53.0522","FILE":"3423346","LAUNCH_DATE":"2021-05-15","MEAN_MOTION_DDOT":"0.0000000000000"},{"REV_AT_EPOCH":"360","EPOCH":"2022-04-30T22:00:00.999936","CLASSIFICATION_TYPE":"U","ARG_OF_PERICENTER":"54.7754","COUNTRY_CODE":"US","OBJECT_TYPE":"PAYLOAD","MEAN_ELEMENT_THEORY":"SGP4","MEAN_ANOMALY":"344.5171","EPHEMERIS_TYPE":"0","CENTER_NAME":"EARTH","INCLINATION":"53.0575","FILE":"3423346","LAUNCH_DATE":"2021-05-15","MEAN_MOTION_DDOT":"0.0000000000000","SITE":"AFETR","REF_FRAME":"TEME","OBJECT_NAME":"STARLINK-2228","ECCENTRICITY":"0.00015420","SEMIMAJOR_AXIS":"6925.470","MEAN_MOTION_DOT":"0.00047585","PERIAPSIS":"546.267","MEAN_MOTION":"15.06360334","DECAY_DATE":null,"TIME_SYSTEM":"UTC","RCS_SIZE":"LARGE","TLE_LINE2":"2 48576  53.0575 310.7953 0001542  54.7754 344.5171 15.06360334  3604","BSTAR":"0.00319540000000","ELEMENT_SET_NO":"999","PERIOD":"95.595","RA_OF_ASC_NODE":"310.7953","GP_ID":"202391346","TLE_LINE1":"1 48576U 21041Z   22120.91667824  .00047585  00000-0  31954-2 0  9991","OBJECT_ID":"2021-041Z","NORAD_CAT_ID":"48576","APOAPSIS":"548.403"},{"MEAN_MOTION_DOT":"-0.00001638","SEMIMAJOR_AXIS":"6925.368","MEAN_MOTION":"15.06393641","DECAY_DATE":null,"TIME_SYSTEM":"UTC","PERIAPSIS":"546.167","RCS_SIZE":"LARGE","BSTAR":"-0.00009112000000","TLE_LINE2":"2 48577  53.0557 336.1390 0001540  74.8146 285.3013 15.06393641 52853","RA_OF_ASC_NODE":"336.1390","GP_ID":"202392096","PERIOD":"95.593","ELEMENT_SET_NO":"999","TLE_LINE1":"1 48577U 21041AA  22120.85002844 -.00001638  00000-0 -91120-4 0  9994","OBJECT_ID":"2021-041AA","APOAPSIS":"548.300","NORAD_CAT_ID":"48577","EPOCH":"2022-04-30T20:24:02.457216","REV_AT_EPOCH":"5285","ARG_OF_PERICENTER":"74.8146","CLASSIFICATION_TYPE":"U","COUNTRY_CODE":"US","OBJECT_TYPE":"PAYLOAD","MEAN_ELEMENT_THEORY":"SGP4","MEAN_ANOMALY":"285.3013","EPHEMERIS_TYPE":"0","CENTER_NAME":"EARTH","INCLINATION":"53.0557","MEAN_MOTION_DDOT":"0.0000000000000","FILE":"3423346","LAUNCH_DATE":"2021-05-15","REF_FRAME":"TEME","SITE":"AFETR","OBJECT_NAME":"STARLINK-2231","ECCENTRICITY":"0.00015400"},{"COUNTRY_CODE":"US","MEAN_ANOMALY":"274.1988","OBJECT_TYPE":"PAYLOAD","MEAN_ELEMENT_THEORY":"SGP4","CLASSIFICATION_TYPE":"U","ARG_OF_PERICENTER":"85.9166","EPOCH":"2022-04-30T21:31:40.818144","REV_AT_EPOCH":"5286","ECCENTRICITY":"0.00014440","OBJECT_NAME":"STARLINK-2232","REF_FRAME":"TEME","SITE":"AFETR","MEAN_MOTION_DDOT":"0.0000000000000","FILE":"3423346","LAUNCH_DATE":"2021-05-15","CENTER_NAME":"EARTH","EPHEMERIS_TYPE":"0","INCLINATION":"53.0562","RCS_SIZE":"LARGE","TLE_LINE2":"2 48578  53.0562 335.9418 0001444  85.9166 274.1988 15.06391240 52867","BSTAR":"-0.00010859000000","MEAN_MOTION":"15.06391240","TIME_SYSTEM":"UTC","DECAY_DATE":null,"PERIAPSIS":"546.240","MEAN_MOTION_DOT":"-0.00001898","SEMIMAJOR_AXIS":"6925.375","APOAPSIS":"548.240","NORAD_CAT_ID":"48578","OBJECT_ID":"2021-041AB","TLE_LINE1":"1 48578U 21041AB  22120.89700021 -.00001898  00000-0 -10859-3 0  9998","RA_OF_ASC_NODE":"335.9418","GP_ID":"202390845","ELEMENT_SET_NO":"999","PERIOD":"95.593"},{"FILE":"3423346","LAUNCH_DATE":"2021-05-15","MEAN_MOTION_DDOT":"0.0000000000000","EPHEMERIS_TYPE":"0","CENTER_NAME":"EARTH","INCLINATION":"53.0546","OBJECT_NAME":"STARLINK-2233","ECCENTRICITY":"0.00015640","SITE":"AFETR","REF_FRAME":"TEME","REV_AT_EPOCH":"5285","EPOCH":"2022-04-30T20:08:06.572544","COUNTRY_CODE":"US","MEAN_ELEMENT_THEORY":"SGP4","OBJECT_TYPE":"PAYLOAD","MEAN_ANOMALY":"286.4554","CLASSIFICATION_TYPE":"U","ARG_OF_PERICENTER":"73.6607","TLE_LINE1":"1 48579U 21041AC  22120.83896496 -.00002630  00000-0 -15779-3 0  9996","ELEMENT_SET_NO":"999","PERIOD":"95.593","RA_OF_ASC_NODE":"336.2038","GP_ID":"202390595","NORAD_CAT_ID":"48579","APOAPSIS":"548.333","OBJECT_ID":"2021-041AC","PERIAPSIS":"546.167","MEAN_MOTION":"15.06388137","DECAY_DATE":null,"TIME_SYSTEM":"UTC","MEAN_MOTION_DOT":"-0.00002630","SEMIMAJOR_AXIS":"6925.385","RCS_SIZE":"LARGE","TLE_LINE2":"2 48579  53.0546 336.2038 0001564  73.6607 286.4554 15.06388137 52854","BSTAR":"-0.00015779000000"},{"RCS_SIZE":"LARGE","TLE_LINE2":"2 48580  53.0536 310.8633 0001591  77.9627 166.4467 15.06387016  3607","BSTAR":"0.00034648000000","SEMIMAJOR_AXIS":"6925.388","MEAN_MOTION_DOT":"0.00004881","MEAN_MOTION":"15.06387016","TIME_SYSTEM":"UTC","DECAY_DATE":null,"PERIAPSIS":"546.152","OBJECT_ID":"2021-041AD","APOAPSIS":"548.355","NORAD_CAT_ID":"48580","RA_OF_ASC_NODE":"310.8633","GP_ID":"202391847","ELEMENT_SET_NO":"999","PERIOD":"95.593","TLE_LINE1":"1 48580U 21041AD  22120.91667824  .00004881  00000-0  34648-3 0  9992","ARG_OF_PERICENTER":"77.9627","CLASSIFICATION_TYPE":"U","COUNTRY_CODE":"US","OBJECT_TYPE":"PAYLOAD","MEAN_ELEMENT_THEORY":"SGP4","MEAN_ANOMALY":"166.4467","EPOCH":"2022-04-30T22:00:00.999936","REV_AT_EPOCH":"360","REF_FRAME":"TEME","SITE":"AFETR","ECCENTRICITY":"0.00015910","OBJECT_NAME":"STARLINK-2234","EPHEMERIS_TYPE":"0","CENTER_NAME":"EARTH","INCLINATION":"53.0536","MEAN_MOTION_DDOT":"0.0000000000000","FILE":"3423346","LAUNCH_DATE":"2021-05-15"},{"NORAD_CAT_ID":"48581","APOAPSIS":"548.285","OBJECT_ID":"2021-041AE","TLE_LINE1":"1 48581U 21041AE  22120.91667824  .00012974  00000-0  88865-3 0  9995","PERIOD":"95.593","ELEMENT_SET_NO":"999","RA_OF_ASC_NODE":"300.8544","GP_ID":"202391597","RCS_SIZE":"LARGE","BSTAR":"0.00088865000000","TLE_LINE2":"2 48581  53.0523 300.8544 0001477  64.9508  34.4541 15.06384205  3616","PERIAPSIS":"546.239","MEAN_MOTION":"15.06384205","DECAY_DATE":null,"TIME_SYSTEM":"UTC","MEAN_MOTION_DOT":"0.00012974","SEMIMAJOR_AXIS":"6925.397","ECCENTRICITY":"0.00014770","OBJECT_NAME":"STARLINK-2235","SITE":"AFETR","REF_FRAME":"TEME","LAUNCH_DATE":"2021-05-15","FILE":"3423346","MEAN_MOTION_DDOT":"0.0000000000000","EPHEMERIS_TYPE":"0","CENTER_NAME":"EARTH","INCLINATION":"53.0523","COUNTRY_CODE":"US","OBJECT_TYPE":"PAYLOAD","MEAN_ELEMENT_THEORY":"SGP4","MEAN_ANOMALY":"34.4541","CLASSIFICATION_TYPE":"U","ARG_OF_PERICENTER":"64.9508","REV_AT_EPOCH":"361","EPOCH":"2022-04-30T22:00:00.999936"},{"REV_AT_EPOCH":"360","EPOCH":"2022-04-30T22:00:00.999936","ARG_OF_PERICENTER":"64.7487","CLASSIFICATION_TYPE":"U","OBJECT_TYPE":"PAYLOAD","MEAN_ANOMALY":"214.6487","MEAN_ELEMENT_THEORY":"SGP4","COUNTRY_CODE":"US","INCLINATION":"53.0537","CENTER_NAME":"EARTH","EPHEMERIS_TYPE":"0","FILE":"3423346","LAUNCH_DATE":"2021-05-15","MEAN_MOTION_DDOT":"0.0000000000000","SITE":"AFETR","REF_FRAME":"TEME","OBJECT_NAME":"STARLINK-2236","ECCENTRICITY":"0.00015150","SEMIMAJOR_AXIS":"6925.368","MEAN_MOTION_DOT":"0.00017787","PERIAPSIS":"546.184","TIME_SYSTEM":"UTC","DECAY_DATE":null,"MEAN_MOTION":"15.06393715","BSTAR":"0.00121020000000","TLE_LINE2":"2 48582  53.0537 300.8385 0001515  64.7487 214.6487 15.06393715  3608","RCS_SIZE":"LARGE","ELEMENT_SET_NO":"999","PERIOD":"95.593","GP_ID":"202390345","RA_OF_ASC_NODE":"300.8385","TLE_LINE1":"1 48582U 21041AF  22120.91667824  .00017787  00000-0  12102-2 0  9993","OBJECT_ID":"2021-041AF","NORAD_CAT_ID":"48582","APOAPSIS":"548.282"}];
